[
    {
        "Altitude(m)": 707487.2108290902,
        "Argument of Periapsis(deg)": 0.006834072711976239,
        "Eccentricity": 0.0,
        "Inclination(deg)": 45.0,
        "Latitude(deg)": -18.07322176175,
        "Longitude(deg)": 50.60775793193661,
        "Mean Anomaly(deg)": -25.807370011511527,
        "RAAN(deg)": 169.99354883512507,
        "Satellite Name": "Constellation 1 768",
        "Satellite Number": 768,
        "Semi-Major Axis(m)": 7083131.272910544,
        "Time(s)": 114
    },
    {
        "Altitude(m)": 707474.5361373497,
        "Argument of Periapsis(deg)": 0.006894020718221645,
        "Eccentricity": 0.0,
        "Inclination(deg)": 45.0,
        "Latitude(deg)": -18.03241563625901,
        "Longitude(deg)": 50.65098546092498,
        "Mean Anomaly(deg)": -25.746668871261665,
        "RAAN(deg)": 169.99349224595952,
        "Satellite Name": "Constellation 1 768",
        "Satellite Number": 768,
        "Semi-Major Axis(m)": 7083131.272910544,
        "Time(s)": 115
    },
    {
        "Altitude(m)": 707461.8716042808,
        "Argument of Periapsis(deg)": 0.006953968724467052,
        "Eccentricity": 0.0,
        "Inclination(deg)": 45.0,
        "Latitude(deg)": -17.991597671031162,
        "Longitude(deg)": 50.694191298772786,
        "Mean Anomaly(deg)": -25.6859677310117,
        "RAAN(deg)": 169.99343565679393,
        "Satellite Name": "Constellation 1 768",
        "Satellite Number": 768,
        "Semi-Major Axis(m)": 7083131.272910544,
        "Time(s)": 116
    },
    {
        "Altitude(m)": 707449.2172699866,
        "Argument of Periapsis(deg)": 0.007013916730712457,
        "Eccentricity": 0.0,
        "Inclination(deg)": 45.0,
        "Latitude(deg)": -17.950767899495716,
        "Longitude(deg)": 50.73737550187185,
        "Mean Anomaly(deg)": -25.62526659076174,
        "RAAN(deg)": 169.99337906762838,
        "Satellite Name": "Constellation 1 768",
        "Satellite Number": 768,
        "Semi-Major Axis(m)": 7083131.272910544,
        "Time(s)": 117
    },
    {
        "Altitude(m)": 707436.5731745159,
        "Argument of Periapsis(deg)": 0.007073864736957864,
        "Eccentricity": 0.0,
        "Inclination(deg)": 45.0,
        "Latitude(deg)": -17.90992635503984,
        "Longitude(deg)": 50.78053812658423,
        "Mean Anomaly(deg)": -25.564565450512006,
        "RAAN(deg)": 169.99332247846283,
        "Satellite Name": "Constellation 1 768",
        "Satellite Number": 768,
        "Semi-Major Axis(m)": 7083131.272910544,
        "Time(s)": 118
    },
    {
        "Altitude(m)": 707423.9393578621,
        "Argument of Periapsis(deg)": 0.0071338127432032696,
        "Eccentricity": 0.0,
        "Inclination(deg)": 45.0,
        "Latitude(deg)": -17.869073071008515,
        "Longitude(deg)": 50.82367906114547,
        "Mean Anomaly(deg)": -25.50386431026202,
        "RAAN(deg)": 169.99326588929722,
        "Satellite Name": "Constellation 1 768",
        "Satellite Number": 768,
        "Semi-Major Axis(m)": 7083131.272910544,
        "Time(s)": 119
    },
    {
        "Altitude(m)": 707411.3158599648,
        "Argument of Periapsis(deg)": 0.007193760749448674,
        "Eccentricity": 0.0,
        "Inclination(deg)": 45.0,
        "Latitude(deg)": -17.828208080704663,
        "Longitude(deg)": 50.86679869805172,
        "Mean Anomaly(deg)": -25.443163170012056,
        "RAAN(deg)": 169.99320930013167,
        "Satellite Name": "Constellation 1 768",
        "Satellite Number": 768,
        "Semi-Major Axis(m)": 7083131.272910544,
        "Time(s)": 120
    },
    {
        "Altitude(m)": 707398.7027207098,
        "Argument of Periapsis(deg)": 0.007253708755694079,
        "Eccentricity": 0.0,
        "Inclination(deg)": 45.0,
        "Latitude(deg)": -17.78733141738995,
        "Longitude(deg)": 50.90989692547845,
        "Mean Anomaly(deg)": -25.38246202976222,
        "RAAN(deg)": 169.99315271096611,
        "Satellite Name": "Constellation 1 768",
        "Satellite Number": 768,
        "Semi-Major Axis(m)": 7083131.272910544,
        "Time(s)": 121
    },
    {
        "Altitude(m)": 707386.0999799285,
        "Argument of Periapsis(deg)": 0.0073136567619394854,
        "Eccentricity": 0.0,
        "Inclination(deg)": 45.0,
        "Latitude(deg)": -17.746443114284084,
        "Longitude(deg)": 50.95297379966826,
        "Mean Anomaly(deg)": -25.321760889512333,
        "RAAN(deg)": 169.99309612180053,
        "Satellite Name": "Constellation 1 768",
        "Satellite Number": 768,
        "Semi-Major Axis(m)": 7083131.272910544,
        "Time(s)": 122
    },
    {
        "Altitude(m)": 707373.5076773968,
        "Argument of Periapsis(deg)": 0.0073736047681848904,
        "Eccentricity": 0.0,
        "Inclination(deg)": 45.0,
        "Latitude(deg)": -17.705543204565245,
        "Longitude(deg)": 50.99602937683381,
        "Mean Anomaly(deg)": -25.261059749262394,
        "RAAN(deg)": 169.99303953263498,
        "Satellite Name": "Constellation 1 768",
        "Satellite Number": 768,
        "Semi-Major Axis(m)": 7083131.272910544,
        "Time(s)": 123
    },
    {
        "Altitude(m)": 707360.9258528344,
        "Argument of Periapsis(deg)": 0.007433552774430298,
        "Eccentricity": 0.0,
        "Inclination(deg)": 45.0,
        "Latitude(deg)": -17.66463172137035,
        "Longitude(deg)": 51.039063713157645,
        "Mean Anomaly(deg)": -25.200358609012508,
        "RAAN(deg)": 169.99298294346937,
        "Satellite Name": "Constellation 1 768",
        "Satellite Number": 768,
        "Semi-Major Axis(m)": 7083131.272910544,
        "Time(s)": 124
    },
    {
        "Altitude(m)": 707348.3545459107,
        "Argument of Periapsis(deg)": 0.007493500780675703,
        "Eccentricity": 0.0,
        "Inclination(deg)": 45.0,
        "Latitude(deg)": -17.623708697794847,
        "Longitude(deg)": 51.08207686479242,
        "Mean Anomaly(deg)": -25.139657468762675,
        "RAAN(deg)": 169.99292635430382,
        "Satellite Name": "Constellation 1 768",
        "Satellite Number": 768,
        "Semi-Major Axis(m)": 7083131.272910544,
        "Time(s)": 125
    },
    {
        "Altitude(m)": 707335.7937962352,
        "Argument of Periapsis(deg)": 0.007553448786921108,
        "Eccentricity": 0.0,
        "Inclination(deg)": 45.0,
        "Latitude(deg)": -17.582774166893188,
        "Longitude(deg)": 51.12506871976384,
        "Mean Anomaly(deg)": -25.078956328512714,
        "RAAN(deg)": 169.99286976513827,
        "Satellite Name": "Constellation 1 768",
        "Satellite Number": 768,
        "Semi-Major Axis(m)": 7083131.272910544,
        "Time(s)": 126
    },
    {
        "Altitude(m)": 707323.2436433583,
        "Argument of Periapsis(deg)": 0.007613396793166514,
        "Eccentricity": 0.0,
        "Inclination(deg)": 45.0,
        "Latitude(deg)": -17.541828161678275,
        "Longitude(deg)": 51.16803967035832,
        "Mean Anomaly(deg)": -25.01825518826285,
        "RAAN(deg)": 169.99281317597269,
        "Satellite Name": "Constellation 1 768",
        "Satellite Number": 768,
        "Semi-Major Axis(m)": 7083131.272910544,
        "Time(s)": 127
    },
    {
        "Altitude(m)": 707310.7041267881,
        "Argument of Periapsis(deg)": 0.007673344799411918,
        "Eccentricity": 0.0,
        "Inclination(deg)": 45.0,
        "Latitude(deg)": -17.500870715122524,
        "Longitude(deg)": 51.21098960454151,
        "Mean Anomaly(deg)": -24.957554048012987,
        "RAAN(deg)": 169.9927565868071,
        "Satellite Name": "Constellation 1 768",
        "Satellite Number": 768,
        "Semi-Major Axis(m)": 7083131.272910544,
        "Time(s)": 128
    },
    {
        "Altitude(m)": 707298.1752859612,
        "Argument of Periapsis(deg)": 0.007733292805657325,
        "Eccentricity": 0.0,
        "Inclination(deg)": 45.0,
        "Latitude(deg)": -17.459901860157274,
        "Longitude(deg)": 51.253918578345974,
        "Mean Anomaly(deg)": -24.896852907763027,
        "RAAN(deg)": 169.99269999764155,
        "Satellite Name": "Constellation 1 768",
        "Satellite Number": 768,
        "Semi-Major Axis(m)": 7083131.272910544,
        "Time(s)": 129
    },
    {
        "Altitude(m)": 707285.6571602656,
        "Argument of Periapsis(deg)": 0.00779324081190273,
        "Eccentricity": 0.0,
        "Inclination(deg)": 45.0,
        "Latitude(deg)": -17.418921629673264,
        "Longitude(deg)": 51.296826647774004,
        "Mean Anomaly(deg)": -24.83615176751316,
        "RAAN(deg)": 169.99264340847597,
        "Satellite Name": "Constellation 1 768",
        "Satellite Number": 768,
        "Semi-Major Axis(m)": 7083131.272910544,
        "Time(s)": 130
    },
    {
        "Altitude(m)": 707273.1497890402,
        "Argument of Periapsis(deg)": 0.007853188818148135,
        "Eccentricity": 0.0,
        "Inclination(deg)": 45.0,
        "Latitude(deg)": -17.37793005652044,
        "Longitude(deg)": 51.339713868797986,
        "Mean Anomaly(deg)": -24.7754506272632,
        "RAAN(deg)": 169.99258681931042,
        "Satellite Name": "Constellation 1 768",
        "Satellite Number": 768,
        "Semi-Major Axis(m)": 7083131.272910544,
        "Time(s)": 131
    },
    {
        "Altitude(m)": 707260.6532115525,
        "Argument of Periapsis(deg)": 0.007913136824393542,
        "Eccentricity": 0.0,
        "Inclination(deg)": 45.0,
        "Latitude(deg)": -17.336927173508414,
        "Longitude(deg)": 51.38258029735995,
        "Mean Anomaly(deg)": -24.714749487013343,
        "RAAN(deg)": 169.99253023014484,
        "Satellite Name": "Constellation 1 768",
        "Satellite Number": 768,
        "Semi-Major Axis(m)": 7083131.272910544,
        "Time(s)": 132
    }
]